ATLANTIS                
1 42737U 98067MS  17206.41819509  .00021062  00000-0  29031-3 0  9995
2 42737  51.6374 206.9354 0009647  76.3189 283.8877 15.57127313  9243
LEMUR-2-ANGELA          
1 42752U 17019B   17206.39707561  .00000339  00000-0  25447-4 0  9993
2 42752  51.6404 217.1477 0011461 117.1327 243.0823 15.27491123  7134
LEMUR-2-JENNYBARNA      
1 42753U 17019C   17206.46137400  .00000879  00000-0  45113-4 0  9992
2 42753  51.6403 216.8273 0011355 117.0825 243.1314 15.27559324  7097
LEMUR-2-ROBMOORE        
1 42754U 17019D   17206.46455449  .00000317  00000-0  24667-4 0  9997
2 42754  51.6403 216.8469 0011421 119.8284 240.3832 15.27422946  7125
LEMUR-2-SPIROVISION     
1 42755U 17019E   17206.59465988  .00000665  00000-0  37395-4 0  9999
2 42755  51.6401 216.2150 0011379 120.0142 240.1968 15.27463971  7035
UCLSAT                  
1 42765U 17036A   17206.44811082  .00001179  00000-0  56636-4 0  9993
2 42765  97.4475 265.8390 0013365 135.6339 224.5970 15.20733781  5037
LITUANICASAT-2          
1 42768U 17036D   17206.53825278  .00001715  00000-0  83468-4 0  9997
2 42768  97.4471 265.8712 0017938 126.2411 234.0485 15.19614370  4925
INFLATESAIL             
1 42770U 17036F   17206.51754405  .00115772  00000-0  40471-2 0  9995
2 42770  97.4487 266.0513 0016123 170.6865 189.4677 15.28948728  4864
LEMUR-2-SHAINAJOHL      
1 42771U 17036G   17206.53462511  .00001638  00000-0  79498-4 0  9990
2 42771  97.4476 265.8769 0016947 125.3320 234.9502 15.19779784  4867
LEMUR-2-XUENITERENCE    
1 42772U 17036H   17206.40175148  .00001718  00000-0  83112-4 0  9991
2 42772  97.4475 265.7480 0016663 125.2450 235.0347 15.19834094  4847
LEMUR-2-LUCYBRYCE       
1 42773U 17036J   17206.53238809  .00001696  00000-0  81952-4 0  9995
2 42773  97.4472 265.8799 0016498 124.8599 235.4190 15.19885879  4863
LEMUR-2-KUNGFOO         
1 42774U 17036K   17206.53185866  .00001321  00000-0  64547-4 0  9996
2 42774  97.4477 265.8816 0016357 124.7377 235.5401 15.19900082  4855
AALTO-1                 
1 42775U 17036L   17206.52975560  .00000749  00000-0  37912-4 0  9993
2 42775  97.4476 265.8840 0015920 123.5411 236.7347 15.19974665  4864
URSA MAIOR              
1 42776U 17036M   17206.52897225  .00000769  00000-0  38780-4 0  9991
2 42776  97.4478 265.8860 0015801 123.8900 236.3840 15.20012088  4861
COMPASS 2               
1 42777U 17036N   17206.52355349  .00001436  00000-0  69131-4 0  9994
2 42777  97.4487 265.8974 0014843 127.8986 232.3594 15.20292805  4859
LEMUR-2-LYNSEY-SYMO     
1 42779U 17036Q   17206.51944994  .00001363  00000-0  65438-4 0  9990
2 42779  97.4479 265.8989 0014309 133.8813 226.3607 15.20488468  4840
LEMUR-2-LISASAURUS      
1 42780U 17036R   17206.51885073  .00001376  00000-0  65981-4 0  9991
2 42780  97.4477 265.8983 0014157 133.6852 226.5559 15.20510778  4855
LEMUR-2-SAM-AMELIA      
1 42781U 17036S   17206.51844582  .00001522  00000-0  72578-4 0  9995
2 42781  97.4476 265.8984 0014126 134.0037 226.2365 15.20541435  4847
LEMUR-2-MCPEAKE         
1 42782U 17036T   17206.51784989  .00001519  00000-0  72403-4 0  9993
2 42782  97.4478 265.9001 0013989 133.8175 226.4220 15.20568355  4849
DIAMOND RED             
1 42783U 17036U   17206.45140237  .00000974  00000-0  47531-4 0  9997
2 42783  97.4476 265.8352 0013967 135.5311 224.7048 15.20570006  4848
PEGASUS                 
1 42784U 17036V   17206.51662276  .00001027  00000-0  49917-4 0  9997
2 42784  97.4477 265.9015 0013900 135.4802 224.7553 15.20603001  4852
DIAMOND GREEN           
1 42785U 17036W   17206.51640085  .00000686  00000-0  34376-4 0  9995
2 42785  97.4478 265.9022 0013842 135.3960 224.8392 15.20606561  4925
DIAMOND BLUE            
1 42786U 17036X   17206.51539250  .00000557  00000-0  28505-4 0  9991
2 42786  97.4477 265.9031 0013658 135.6908 224.5424 15.20652140  4922
NUDTSAT                 
1 42787U 17036Y   17206.51451682  .00001479  00000-0  70281-4 0  9996
2 42787  97.4477 265.9038 0013579 135.7980 224.4343 15.20722810  4698
SUCHAI                  
1 42788U 17036Z   17206.44896150  .00001271  00000-0  60882-4 0  9998
2 42788  97.4476 265.8383 0013558 135.8517 224.3803 15.20697743  4915
SKCUBE                  
1 42789U 17036AA  17206.51385449  .00001136  00000-0  54661-4 0  9999
2 42789  97.4475 265.9042 0013372 135.5242 224.7069 15.20737892  4844
VZLUSAT-1               
1 42790U 17036AB  17206.57817078  .00001320  00000-0  62907-4 0  9992
2 42790  97.4473 265.9699 0013117 135.6656 224.5632 15.20815056  4853
ROBUSTA-1B              
1 42792U 17036AD  17206.57708219  .00001165  00000-0  55832-4 0  9996
2 42792  97.4473 265.9713 0012915 136.3289 223.8970 15.20860169  4860
CICERO 6                
1 42793U 17036AE  17206.57268749  .00000851  00000-0  41412-4 0  9996
2 42793  97.4472 265.9769 0011945 136.5709 223.6469 15.21052618  4934
D-SAT                   
1 42794U 17036AF  17206.57107732  .00000692  00000-0  34178-4 0  9995
2 42794  97.4470 265.9780 0011160 133.7139 226.5023 15.21123476  4851
1998-067MU              
1 42820U 98067MU  17206.41392895  .00009498  00000-0  14458-3 0  9998
2 42820  51.6382 207.6557 0004241  34.3767 325.7498 15.55245685  2822
1998-067MV              
1 42821U 98067MV  17206.41435047  .00009231  00000-0  14094-3 0  9997
2 42821  51.6382 207.6583 0004282  36.4088 323.7193 15.55203563  2803
1998-067MW              
1 42822U 98067MW  17206.47893260  .00009435  00000-0  14401-3 0  9997
2 42822  51.6383 207.3401 0004323  38.3334 321.7964 15.55180311  2801
1998-067MX              
1 42823U 98067MX  17206.41522404  .00009455  00000-0  14445-3 0  9991
2 42823  51.6386 207.6656 0008026  49.8243 310.3449 15.55134717  2801
1998-067MY              
1 42824U 98067MY  17206.22303726  .00009360  00000-0  14339-3 0  9992
2 42824  51.6385 208.6321 0007809  50.1826 309.9852 15.55077024  2743
FLOCK 2K-03             
1 42850U 17042AB  17206.56930344  .00001590  00000-0  53126-4 0  9999
2 42850  97.0016 114.9685 0011442 206.9262 153.1388 15.32331414  1532
FLOCK 2K-04             
1 42851U 17042AC  17206.56938796  .00001314  00000-0  44362-4 0  9995
2 42851  97.0019 114.9686 0011139 206.6539 153.4132 15.32303777  1535
FLOCK 2K-01             
1 42852U 17042AD  17206.56920033  .00001345  00000-0  45323-4 0  9993
2 42852  97.0018 114.9689 0011100 206.1862 153.8821 15.32330238  1531
FLOCK 2K-02             
1 42853U 17042AE  17206.56915077  .00001382  00000-0  46467-4 0  9997
2 42853  97.0020 114.9693 0010971 205.8122 154.2575 15.32337508  1538
FLOCK 2K-47             
1 42854U 17042AF  17206.56889894  .00001352  00000-0  45467-4 0  9991
2 42854  97.0016 114.9689 0010992 205.0149 155.0563 15.32372492  1530
FLOCK 2K-48             
1 42855U 17042AG  17206.56881388  .00001352  00000-0  45453-4 0  9997
2 42855  97.0019 114.9695 0010979 204.8688 155.2027 15.32384352  1536
FLOCK 2K-45             
1 42856U 17042AH  17206.56864285  .00001344  00000-0  45170-4 0  9992
2 42856  97.0017 114.9694 0011007 204.5397 155.5323 15.32408244  1530
FLOCK 2K-24             
1 42857U 17042AJ  17206.56839018  .00001375  00000-0  46116-4 0  9994
2 42857  97.0015 114.9693 0010940 203.8632 156.2106 15.32443802  1533
FLOCK 2K-46             
1 42858U 17042AK  17206.56836367  .00001353  00000-0  45385-4 0  9992
2 42858  97.0019 114.9702 0011077 203.9247 156.1482 15.32447004  1538
FLOCK 2K-23             
1 42859U 17042AL  17206.56832887  .00001337  00000-0  44897-4 0  9995
2 42859  97.0019 114.9701 0011033 203.8164 156.2570 15.32451818  1534
FLOCK 2K-21             
1 42860U 17042AM  17206.56815192  .00001305  00000-0  43839-4 0  9997
2 42860  97.0018 114.9703 0011021 203.3148 156.7596 15.32476702  1533
FLOCK 2K-22             
1 42861U 17042AN  17206.56795429  .00001364  00000-0  45681-4 0  9990
2 42861  97.0019 114.9708 0011078 203.1386 156.9360 15.32504786  1539
FLOCK 2K-07             
1 42862U 17042AP  17206.56765715  .00001352  00000-0  45236-4 0  9999
2 42862  97.0018 114.9710 0011190 202.4452 157.6303 15.32546023  1549
FLOCK 2K-08             
1 42863U 17042AQ  17206.56754551  .00001364  00000-0  45600-4 0  9994
2 42863  97.0016 114.9704 0011229 202.6895 157.3853 15.32562051  1532
FLOCK 2K-05             
1 42864U 17042AR  17206.56733535  .00001361  00000-0  45445-4 0  9998
2 42864  97.0018 114.9712 0011305 202.4403 157.6346 15.32591466  1534
FLOCK 2K-40             
1 42865U 17042AS  17206.56724094  .00001385  00000-0  46202-4 0  9997
2 42865  97.0018 114.9715 0011222 202.7019 157.3730 15.32604820  1535
FLOCK 2K-39             
1 42866U 17042AT  17206.56719603  .00001355  00000-0  45249-4 0  9995
2 42866  97.0018 114.9713 0011295 202.4372 157.6378 15.32610558  1539
FLOCK 2K-37             
1 42867U 17042AU  17206.56716459  .00001366  00000-0  45579-4 0  9990
2 42867  97.0018 114.9715 0011218 202.3180 157.7577 15.32615436  1535
FLOCK 2K-38             
1 42868U 17042AV  17206.56694972  .00001377  00000-0  45873-4 0  9995
2 42868  97.0018 114.9718 0011312 202.3058 157.7695 15.32645562  1532
FLOCK 2K-31             
1 42869U 17042AW  17206.56673719  .00001383  00000-0  46041-4 0  9997
2 42869  97.0017 114.9717 0011392 202.2056 157.8695 15.32675453  1539
FLOCK 2K-32             
1 42870U 17042AX  17206.56659690  .00001369  00000-0  45562-4 0  9992
2 42870  97.0018 114.9722 0011420 202.5017 157.5726 15.32695026  1530
FLOCK 2K-29             
1 42871U 17042AY  17206.56654294  .00001385  00000-0  46062-4 0  9992
2 42871  97.0019 114.9725 0011418 202.1624 157.9127 15.32702667  1531
FLOCK 2K-30             
1 42872U 17042AZ  17206.56628463  .00001376  00000-0  45710-4 0  9991
2 42872  97.0017 114.9724 0011519 202.4896 157.5843 15.32738787  1527
FLOCK 2K-44             
1 42873U 17042BA  17206.56585698  .00001173  00000-0  39223-4 0  9991
2 42873  97.0018 114.9737 0012526 192.4954 167.5980 15.32797806  1536
